NORAD_CAT_ID,OBJECT_NAME,OBJECT_TYPE,EPOCH,MEAN_MOTION,ECCENTRICITY,INCLINATION,RA_OF_ASC_NODE,ARG_OF_PERICENTER,MEAN_ANOMALY,BSTAR,MEAN_MOTION_DOT,MEAN_MOTION_DDOT,TLE_LINE0,TLE_LINE1,TLE_LINE2,SEMIMAJOR_AXIS,PERIOD,APOGEE,PERIGEE,DECAYED
51961.0,STARLINK-3689,PAYLOAD,2024-02-22 11:17:36,15.0803152,0.0001537,53.0545,135.9047,109.0576,251.058,6.1311e-05,6.69e-06,0.0,0 STARLINK-3689,1 51961U 22025F   24053.47056280  .00000669  00000-0  61311-4 0  9996,2 51961  53.0545 135.9047 0001537 109.0576 251.0580 15.08031520109623,6920.353,95.489,543.281,541.154,0.0
51961.0,STARLINK-3689,PAYLOAD,2024-02-22 12:53:02,15.08033467,0.0001368,53.0538,135.6057,103.886,256.2282,7.8635e-05,9.39e-06,0.0,0 STARLINK-3689,1 51961U 22025F   24053.53683624  .00000939  00000-0  78635-4 0  9998,2 51961  53.0538 135.6057 0001368 103.8860 256.2282 15.08033467108529,6920.347,95.489,543.158,541.265,0.0
51961.0,STARLINK-3689,PAYLOAD,2024-02-23 12:44:33,15.08052716,0.0001499,53.0546,131.1281,84.5948,275.5213,0.00012323,1.634e-05,0.0,0 STARLINK-3689,1 51961U 22025F   24054.53094574  .00001634  00000-0  12323-3 0  9993,2 51961  53.0546 131.1281 0001499  84.5948 275.5213 15.08052716108677,6920.288,95.487,543.19,541.115,0.0
51961.0,STARLINK-3689,PAYLOAD,2024-02-23 22:17:11,15.08044209,0.0001696,53.0558,129.3392,86.5445,273.5739,-4.2494e-05,-9.48e-06,0.0,0 STARLINK-3689,1 51961U 22025F   24054.92860088 -.00000948  00000-0 -42494-4 0  9999,2 51961  53.0558 129.3392 0001696  86.5445 273.5739 15.08044209108731,6920.314,95.488,543.353,541.005,0.0
51961.0,STARLINK-3689,PAYLOAD,2024-02-24 04:38:57,15.08021113,0.0001458,53.0546,128.1453,87.3431,272.7725,-3.3316e-05,-8.04e-06,0.0,0 STARLINK-3689,1 51961U 22025F   24055.19371824 -.00000804  00000-0 -33316-4 0  9998,2 51961  53.0546 128.1453 0001458  87.3431 272.7725 15.08021113109885,6920.385,95.489,543.259,541.241,0.0
51961.0,STARLINK-3689,PAYLOAD,2024-02-24 14:11:33,15.08030049,0.000145,53.0534,126.3553,87.5117,272.6039,4.487e-05,4.13e-06,0.0,0 STARLINK-3689,1 51961U 22025F   24055.59136153  .00000413  00000-0  44870-4 0  9997,2 51961  53.0534 126.3553 0001450  87.5117 272.6039 15.08030049108837,6920.357,95.489,543.226,541.219,0.0
51961.0,STARLINK-3689,PAYLOAD,2024-02-25 10:52:13,15.0804397,0.000168,53.0549,122.4788,87.9552,272.163,1.0617e-05,-1.21e-06,0.0,0 STARLINK-3689,1 51961U 22025F   24056.45292920 -.00000121  00000-0  10617-4 0  9997,2 51961  53.0549 122.4788 0001680  87.9552 272.1630 15.08043970110070,6920.315,95.488,543.342,541.017,0.0
51961.0,STARLINK-3689,PAYLOAD,2024-02-25 14:03:04,15.08051569,0.0001632,53.0544,121.8797,88.4267,271.6909,8.8812e-05,1.098e-05,0.0,0 STARLINK-3689,1 51961U 22025F   24056.58547163  .00001098  00000-0  88812-4 0  9998,2 51961  53.0544 121.8797 0001632  88.4267 271.6909 15.08051569108987,6920.291,95.487,543.286,541.027,0.0
51961.0,STARLINK-3689,PAYLOAD,2024-02-26 04:22:01,15.0803186,0.0001654,53.0539,119.1973,92.8668,267.2511,0.00029715,4.343e-05,0.0,0 STARLINK-3689,1 51961U 22025F   24057.18195926  .00004343  00000-0  29715-3 0  9993,2 51961  53.0539 119.1973 0001654  92.8668 267.2511 15.08031860110182,6920.352,95.489,543.361,541.072,0.0
51961.0,STARLINK-3689,PAYLOAD,2024-02-26 13:54:37,15.08042473,0.0001696,53.0522,117.4069,89.0083,271.1101,0.00029244,4.271e-05,0.0,0 STARLINK-3689,1 51961U 22025F   24057.57960244  .00004271  00000-0  29244-3 0  9996,2 51961  53.0522 117.4069 0001696  89.0083 271.1101 15.08042473109130,6920.319,95.488,543.358,541.01,0.0
51961.0,STARLINK-3689,PAYLOAD,2024-02-27 04:13:33,15.0803019,0.0001885,53.0551,114.7226,109.4525,250.6668,-5.2107e-05,-1.097e-05,0.0,0 STARLINK-3689,1 51961U 22025F   24058.17608446 -.00001097  00000-0 -52107-4 0  9996,2 51961  53.0551 114.7226 0001885 109.4525 250.6668 15.08030190110332,6920.357,95.489,543.526,540.917,0.0
51961.0,STARLINK-3689,PAYLOAD,2024-02-27 10:35:18,15.08028144,0.0001439,53.0535,113.5279,84.171,275.9443,-7.8898e-05,-1.514e-05,0.0,0 STARLINK-3689,1 51961U 22025F   24058.44118528 -.00001514  00000-0 -78898-4 0  9992,2 51961  53.0535 113.5279 0001439  84.1710 275.9443 15.08028144109266,6920.363,95.489,543.224,541.232,0.0
51961.0,STARLINK-3689,PAYLOAD,2024-02-27 20:07:55,15.08031245,0.0001495,53.0543,111.7402,88.9161,271.2,-4.2761e-05,-9.52e-06,0.0,0 STARLINK-3689,1 51961U 22025F   24058.83883381 -.00000952  00000-0 -42761-4 0  9996,2 51961  53.0543 111.7402 0001495  88.9161 271.2000 15.08031245109328,6920.354,95.489,543.253,541.184,0.0
51961.0,STARLINK-3689,PAYLOAD,2024-02-28 10:26:50,15.0804203,0.0001416,53.0534,109.056,91.5308,268.5843,0.00048904,7.338e-05,0.0,0 STARLINK-3689,1 51961U 22025F   24059.43530764  .00007338  00000-0  48904-3 0  9994,2 51961  53.0534 109.0560 0001416  91.5308 268.5843 15.08042030110521,6920.321,95.488,543.165,541.206,0.0
51961.0,STARLINK-3689,PAYLOAD,2024-02-28 19:59:27,15.08042301,0.0001351,53.0527,107.2664,90.2739,269.8406,0.00042194,6.291e-05,0.0,0 STARLINK-3689,1 51961U 22025F   24059.83295643  .00006291  00000-0  42194-3 0  9994,2 51961  53.0527 107.2664 0001351  90.2739 269.8406 15.08042301109472,6920.32,95.488,543.12,541.25,0.0
51961.0,STARLINK-3689,PAYLOAD,2024-02-29 11:53:49,15.08028366,0.0001742,53.0555,104.2803,77.9102,282.2083,0.00012157,1.607e-05,0.0,0 STARLINK-3689,1 51961U 22025F   24060.49571193  .00001607  00000-0  12157-3 0  9997,2 51961  53.0555 104.2803 0001742  77.9102 282.2083 15.08028366110685,6920.362,95.489,543.433,541.022,0.0
51961.0,STARLINK-3689,PAYLOAD,2024-02-29 13:29:15,15.08028288,0.0001763,53.0553,103.983,81.0948,279.0241,0.00010266,1.312e-05,0.0,0 STARLINK-3689,1 51961U 22025F   24060.56198675  .00001312  00000-0  10266-3 0  9997,2 51961  53.0553 103.9830 0001763  81.0948 279.0241 15.08028288109586,6920.363,95.489,543.448,541.008,0.0
51961.0,STARLINK-3689,PAYLOAD,2024-02-29 19:51:00,15.08026625,0.0001588,53.0542,102.7899,84.6563,275.4608,3.0359e-05,1.87e-06,0.0,0 STARLINK-3689,1 51961U 22025F   24060.82708734  .00000187  00000-0  30359-4 0  9994,2 51961  53.0542 102.7899 0001588  84.6563 275.4608 15.08026625109628,6920.368,95.489,543.332,541.134,0.0
51961.0,STARLINK-3689,PAYLOAD,2024-03-01 08:34:29,15.08031833,0.000154,53.0537,100.4032,81.356,278.7604,-4.4381e-05,-9.77e-06,0.0,0 STARLINK-3689,1 51961U 22025F   24061.35728561 -.00000977  00000-0 -44381-4 0  9992,2 51961  53.0537 100.4032 0001540  81.3560 278.7604 15.08031833109703,6920.352,95.489,543.282,541.151,0.0
51961.0,STARLINK-3689,PAYLOAD,2024-03-02 08:26:01,15.08040519,0.0001724,53.0546,95.9285,84.8336,275.285,0.00025348,3.663e-05,0.0,0 STARLINK-3689,1 51961U 22025F   24062.35140638  .00003663  00000-0  25348-3 0  9990,2 51961  53.0546  95.9285 0001724  84.8336 275.2850 15.08040519110960,6920.325,95.488,543.383,540.997,0.0
51961.0,STARLINK-3689,PAYLOAD,2024-03-03 11:28:26,15.08034265,0.000167,53.0548,90.8581,89.3022,270.8159,7.5655e-05,8.92e-06,0.0,0 STARLINK-3689,1 51961U 22025F   24063.47808393  .00000892  00000-0  75655-4 0  9991,2 51961  53.0548  90.8581 0001670  89.3022 270.8159 15.08034265111131,6920.344,95.489,543.365,541.054,0.0
51961.0,STARLINK-3689,PAYLOAD,2024-03-04 08:09:05,15.08047608,0.0001792,53.0544,86.9827,87.84,272.2794,0.00021416,3.051e-05,0.0,0 STARLINK-3689,1 51961U 22025F   24064.33965077  .00003051  00000-0  21416-3 0  9995,2 51961  53.0544  86.9827 0001792  87.8400 272.2794 15.08047608111264,6920.303,95.488,543.409,540.928,0.0
51961.0,STARLINK-3689,PAYLOAD,2024-03-05 01:38:54,15.08028429,0.0001752,53.0538,83.7008,81.8919,278.2269,9.9268e-06,-1.32e-06,0.0,0 STARLINK-3689,1 51961U 22025F   24065.06868409 -.00000132  00000-0  99268-5 0  9997,2 51961  53.0538  83.7008 0001752  81.8919 278.2269 15.08028429111373,6920.362,95.489,543.44,541.015,0.0
51961.0,STARLINK-3689,PAYLOAD,2024-03-05 11:11:31,15.08023454,0.0001704,53.0544,81.9111,109.1016,251.0158,-2.9576e-05,-7.46e-06,0.0,0 STARLINK-3689,1 51961U 22025F   24065.46633812 -.00000746  00000-0 -29576-4 0  9995,2 51961  53.0544  81.9111 0001704 109.1016 251.0158 15.08023454110327,6920.377,95.489,543.422,541.063,0.0
51961.0,STARLINK-3689,PAYLOAD,2024-03-06 04:41:19,15.08031546,0.0001565,53.0543,78.6296,97.4484,262.6683,0.00043653,6.517e-05,0.0,0 STARLINK-3689,1 51961U 22025F   24066.19536491  .00006517  00000-0  43653-3 0  9992,2 51961  53.0543  78.6296 0001565  97.4484 262.6683 15.08031546111543,6920.353,95.489,543.301,541.135,0.0
51961.0,STARLINK-3689,PAYLOAD,2024-03-07 09:19:10,15.0803676,0.000158,53.0529,73.2611,101.1008,259.0159,0.00025199,3.64e-05,0.0,0 STARLINK-3689,1 51961U 22025F   24067.38831255  .00003640  00000-0  25199-3 0  9999,2 51961  53.0529  73.2611 0001580 101.1008 259.0159 15.08036760110619,6920.337,95.488,543.295,541.108,0.0
51961.0,STARLINK-3689,PAYLOAD,2024-03-08 04:24:24,15.08031305,0.0001792,53.0546,69.6792,88.3051,271.8144,8.2787e-05,1.003e-05,0.0,0 STARLINK-3689,1 51961U 22025F   24068.18361447  .00001003  00000-0  82787-4 0  9997,2 51961  53.0546  69.6792 0001792  88.3051 271.8144 15.08031305111848,6920.353,95.489,543.458,540.978,0.0
51961.0,STARLINK-3689,PAYLOAD,2024-03-08 09:10:43,15.08029036,0.0001918,53.0555,68.7839,89.5563,270.5646,0.00045314,6.775e-05,0.0,0 STARLINK-3689,1 51961U 22025F   24068.38244279  .00006775  00000-0  45314-3 0  9997,2 51961  53.0555  68.7839 0001918  89.5563 270.5646 15.08029036110762,6920.36,95.489,543.553,540.898,0.0
51961.0,STARLINK-3689,PAYLOAD,2024-03-08 17:07:53,15.08029207,0.0001711,53.0553,67.291,99.3506,260.7677,6.768e-05,7.68e-06,0.0,0 STARLINK-3689,1 51961U 22025F   24068.71381546  .00000768  00000-0  67680-4 0  9990,2 51961  53.0553  67.2910 0001711  99.3506 260.7677 15.08029207110812,6920.36,95.489,543.409,541.041,0.0
51961.0,STARLINK-3689,PAYLOAD,2024-03-09 05:51:22,15.08034143,0.0001652,53.0544,64.9069,91.1183,268.9996,0.00014797,2.019e-05,0.0,0 STARLINK-3689,1 51961U 22025F   24069.24401461  .00002019  00000-0  14797-3 0  9999,2 51961  53.0544  64.9069 0001652  91.1183 268.9996 15.08034143112008,6920.345,95.489,543.353,541.066,0.0
